ONEWEB-0665             
1 55825U 23029AF  25061.91317798 -.00000172  00000+0 -49742-3 0  9990
2 55825  87.9052  23.4263 0002166  84.9042 275.2335 13.14502064 97492
ONEWEB-0666             
1 55826U 23029AG  25061.90216155  .00000094  00000+0  20009-3 0  9991
2 55826  87.9319   8.2632 0001532  75.4451 284.6852 13.20777775 98944
ONEWEB-0667             
1 55827U 23029AH  25061.89584224  .00000016  00000+0  65018-5 0  9990
2 55827  87.9322   8.1969 0001996  86.4335 273.7026 13.20769588 98932
ONEWEB-0669             
1 55828U 23029AJ  25061.89111347  .00000085  00000+0  17605-3 0  9996
2 55828  87.9320   8.2341 0001165  91.6523 268.4744 13.20771050 98936
ONEWEB-0670             
1 55829U 23029AK  25061.89096638  .00000160  00000+0  39746-3 0  9996
2 55829  87.9055  23.4451 0002007  95.2413 264.8946 13.14500584 97519
ONEWEB-0671             
1 55830U 23029AL  25062.01377345 -.00000031  00000+0 -11021-3 0  9995
2 55830  87.9186  38.6293 0002041  92.6654 267.4713 13.19724221 97448
ONEWEB-0672             
1 55831U 23029AM  25062.34090836 -.00000787  00000+0 -19665-2 0  9998
2 55831  87.9318   8.1324 0002155  76.9907 283.1467 13.20769849 99670
ONEWEB-0673             
1 55832U 23029AN  25061.99008303  .00000019  00000+0  15681-4 0  9999
2 55832  87.9183  38.5986 0002156  81.4357 278.7020 13.19723972 97468
